[{"OBJECT_NAME":"GOSAT-GW (IBUKI GW)","OBJECT_ID":"2025-141A","EPOCH":"2026-04-27T06:12:24.327360","MEAN_MOTION":14.67550244,"ECCENTRICITY":0.0001355,"INCLINATION":98.0553,"RA_OF_ASC_NODE":55.4101,"ARG_OF_PERICENTER":80.99,"MEAN_ANOMALY":279.1458,"EPHEMERIS_TYPE":0,"CLASSIFICATION_TYPE":"U","NORAD_CAT_ID":64694,"ELEMENT_SET_NO":999,"REV_AT_EPOCH":4437,"BSTAR":-0.00019589329,"MEAN_MOTION_DOT":-1.159e-5,"MEAN_MOTION_DDOT":0},{"OBJECT_NAME":"IONOSFERA-M 3","OBJECT_ID":"2025-155A","EPOCH":"2026-04-27T06:49:15.998016","MEAN_MOTION":14.21477348,"ECCENTRICITY":0.00019396,"INCLINATION":98.5991,"RA_OF_ASC_NODE":80.4819,"ARG_OF_PERICENTER":43.4599,"MEAN_ANOMALY":316.6731,"EPHEMERIS_TYPE":0,"CLASSIFICATION_TYPE":"U","NORAD_CAT_ID":64876,"ELEMENT_SET_NO":999,"REV_AT_EPOCH":3917,"BSTAR":5.1394006e-5,"MEAN_MOTION_DOT":7.0e-7,"MEAN_MOTION_DDOT":0},{"OBJECT_NAME":"IONOSFERA-M 4","OBJECT_ID":"2025-155B","EPOCH":"2026-04-27T07:39:32.670432","MEAN_MOTION":14.21479318,"ECCENTRICITY":0.0001374,"INCLINATION":98.599,"RA_OF_ASC_NODE":80.4338,"ARG_OF_PERICENTER":55.3625,"MEAN_ANOMALY":304.7682,"EPHEMERIS_TYPE":0,"CLASSIFICATION_TYPE":"U","NORAD_CAT_ID":64877,"ELEMENT_SET_NO":999,"REV_AT_EPOCH":3917,"BSTAR":4.8827409e-5,"MEAN_MOTION_DOT":6.4e-7,"MEAN_MOTION_DDOT":0},{"OBJECT_NAME":"MICROCARB","OBJECT_ID":"2025-156A","EPOCH":"2026-04-27T04:16:42.902976","MEAN_MOTION":14.72270623,"ECCENTRICITY":0.00177257,"INCLINATION":97.9836,"RA_OF_ASC_NODE":195.2258,"ARG_OF_PERICENTER":76.979,"MEAN_ANOMALY":283.3395,"EPHEMERIS_TYPE":0,"CLASSIFICATION_TYPE":"U","NORAD_CAT_ID":64899,"ELEMENT_SET_NO":999,"REV_AT_EPOCH":4046,"BSTAR":0.00010943039,"MEAN_MOTION_DOT":6.43e-6,"MEAN_MOTION_DDOT":0},{"OBJECT_NAME":"CO3D 3","OBJECT_ID":"2025-156B","EPOCH":"2026-04-27T07:21:31.309632","MEAN_MOTION":15.20215116,"ECCENTRICITY":0.00010788,"INCLINATION":97.4327,"RA_OF_ASC_NODE":196.7307,"ARG_OF_PERICENTER":50.5613,"MEAN_ANOMALY":309.5718,"EPHEMERIS_TYPE":0,"CLASSIFICATION_TYPE":"U","NORAD_CAT_ID":64900,"ELEMENT_SET_NO":999,"REV_AT_EPOCH":4180,"BSTAR":0.00026808878,"MEAN_MOTION_DOT":5.743e-5,"MEAN_MOTION_DDOT":0},{"OBJECT_NAME":"CO3D 4","OBJECT_ID":"2025-156C","EPOCH":"2026-04-26T07:39:58.955040","MEAN_MOTION":15.20218631,"ECCENTRICITY":0.00020053,"INCLINATION":97.4324,"RA_OF_ASC_NODE":195.7576,"ARG_OF_PERICENTER":104.9671,"MEAN_ANOMALY":255.1786,"EPHEMERIS_TYPE":0,"CLASSIFICATION_TYPE":"U","NORAD_CAT_ID":64901,"ELEMENT_SET_NO":999,"REV_AT_EPOCH":4165,"BSTAR":0.00016794712,"MEAN_MOTION_DOT":3.572e-5,"MEAN_MOTION_DDOT":0},{"OBJECT_NAME":"CO3D 2","OBJECT_ID":"2025-156D","EPOCH":"2026-04-27T04:58:56.625312","MEAN_MOTION":15.2020487,"ECCENTRICITY":6.084e-5,"INCLINATION":97.4325,"RA_OF_ASC_NODE":196.5318,"ARG_OF_PERICENTER":59.8733,"MEAN_ANOMALY":300.2562,"EPHEMERIS_TYPE":0,"CLASSIFICATION_TYPE":"U","NORAD_CAT_ID":64902,"ELEMENT_SET_NO":999,"REV_AT_EPOCH":4178,"BSTAR":0.00024499759,"MEAN_MOTION_DOT":5.24e-5,"MEAN_MOTION_DDOT":0},{"OBJECT_NAME":"CO3D 1","OBJECT_ID":"2025-156E","EPOCH":"2026-04-13T15:33:44.640576","MEAN_MOTION":15.19681462,"ECCENTRICITY":0.0110033,"INCLINATION":98.0928,"RA_OF_ASC_NODE":182.3847,"ARG_OF_PERICENTER":5.8142,"MEAN_ANOMALY":354.4339,"EPHEMERIS_TYPE":0,"CLASSIFICATION_TYPE":"U","NORAD_CAT_ID":64903,"ELEMENT_SET_NO":999,"REV_AT_EPOCH":3972,"BSTAR":0.00012932,"MEAN_MOTION_DOT":3.151e-5,"MEAN_MOTION_DDOT":0},{"OBJECT_NAME":"SENTINEL-6B","OBJECT_ID":"2025-264A","EPOCH":"2026-04-26T17:05:06.170208","MEAN_MOTION":12.80930819,"ECCENTRICITY":0.00079348,"INCLINATION":66.0413,"RA_OF_ASC_NODE":242.0915,"ARG_OF_PERICENTER":269.7204,"MEAN_ANOMALY":90.2902,"EPHEMERIS_TYPE":0,"CLASSIFICATION_TYPE":"U","NORAD_CAT_ID":66514,"ELEMENT_SET_NO":999,"REV_AT_EPOCH":2057,"BSTAR":-1.5953871e-5,"MEAN_MOTION_DOT":-6.5e-7,"MEAN_MOTION_DDOT":0},{"OBJECT_NAME":"CSG-3","OBJECT_ID":"2026-001A","EPOCH":"2026-04-27T05:29:07.754208","MEAN_MOTION":14.82173164,"ECCENTRICITY":0.00013795,"INCLINATION":97.8887,"RA_OF_ASC_NODE":301.5678,"ARG_OF_PERICENTER":89.7342,"MEAN_ANOMALY":270.403,"EPHEMERIS_TYPE":0,"CLASSIFICATION_TYPE":"U","NORAD_CAT_ID":67304,"ELEMENT_SET_NO":999,"REV_AT_EPOCH":1691,"BSTAR":5.3299719e-5,"MEAN_MOTION_DOT":3.72e-6,"MEAN_MOTION_DDOT":0}]
