GOSAT-GW (IBUKI GW)     
1 64694U 25141A   26117.25861490 -.00001159  00000+0 -19589-3 0  9996
2 64694  98.0553  55.4101 0001355  80.9900 279.1458 14.67550244 44379
IONOSFERA-M 3           
1 64876U 25155A   26117.28421294  .00000070  00000+0  51394-4 0  9990
2 64876  98.5991  80.4819 0001939  43.4599 316.6731 14.21477348 39178
IONOSFERA-M 4           
1 64877U 25155B   26117.31912813  .00000064  00000+0  48827-4 0  9997
2 64877  98.5990  80.4338 0001374  55.3625 304.7682 14.21479318 39171
MICROCARB               
1 64899U 25156A   26117.17827434  .00000643  00000+0  10943-3 0  9990
2 64899  97.9836 195.2258 0017725  76.9790 283.3395 14.72270623 40463
CO3D 3                  
1 64900U 25156B   26117.30661238  .00005743  00000+0  26809-3 0  9990
2 64900  97.4327 196.7307 0001078  50.5613 309.5718 15.20215116 41802
CO3D 4                  
1 64901U 25156C   26116.31943235  .00003572  00000+0  16795-3 0  9992
2 64901  97.4324 195.7576 0002005 104.9671 255.1786 15.20218631 41655
CO3D 2                  
1 64902U 25156D   26117.20759983  .00005240  00000+0  24500-3 0  9994
2 64902  97.4325 196.5318 0000608  59.8733 300.2562 15.20204870 41782
CO3D 1                  
1 64903U 25156E   26103.64843334  .00003151  00000+0  12932-3 0  9997
2 64903  98.0928 182.3847 0110033   5.8142 354.4339 15.19681462 39726
SENTINEL-6B             
1 66514U 25264A   26116.71187697 -.00000065  00000+0 -15954-4 0  9993
2 66514  66.0413 242.0915 0007934 269.7204  90.2902 12.80930819 20577
CSG-3                   
1 67304U 26001A   26117.22856197  .00000372  00000+0  53300-4 0  9992
2 67304  97.8887 301.5678 0001379  89.7342 270.4030 14.82173164 16912
